[{"OBJECT_NAME":"HULIANWANG DIGUI-116","OBJECT_ID":"2025-287C","EPOCH":"2026-03-09T22:22:15.428928","MEAN_MOTION":13.24416313,"ECCENTRICITY":0.00020546,"INCLINATION":86.492,"RA_OF_ASC_NODE":315.8725,"ARG_OF_PERICENTER":78.1138,"MEAN_ANOMALY":282.0227,"EPHEMERIS_TYPE":0,"CLASSIFICATION_TYPE":"U","NORAD_CAT_ID":66955,"ELEMENT_SET_NO":999,"REV_AT_EPOCH":1220,"BSTAR":0.00012503388,"MEAN_MOTION_DOT":6.8e-7,"MEAN_MOTION_DDOT":0},{"OBJECT_NAME":"FENGYUN 1C DEB","OBJECT_ID":"1999-025CUG","EPOCH":"2026-02-25T22:03:22.211712","MEAN_MOTION":13.76696057,"ECCENTRICITY":0.02708942,"INCLINATION":99.5999,"RA_OF_ASC_NODE":113.1799,"ARG_OF_PERICENTER":4.8015,"MEAN_ANOMALY":175.9966,"EPHEMERIS_TYPE":0,"CLASSIFICATION_TYPE":"U","NORAD_CAT_ID":32186,"ELEMENT_SET_NO":999,"REV_AT_EPOCH":63644,"BSTAR":0.00065981841,"MEAN_MOTION_DOT":8.03e-6,"MEAN_MOTION_DDOT":0}]
